ONEWEB-0128             
1 47274U 20100S   25309.27488830 -.00000317  00000+0 -91679-3 0  9993
2 47274  87.8963  35.1835 0001968 105.0871 255.0476 13.12442834235379
ONEWEB-0129             
1 47275U 20100T   25309.25380493 -.00000065  00000+0 -21556-3 0  9995
2 47275  87.8978  35.1367 0002580  79.2675 280.8744 13.12442217235303
ONEWEB-0130             
1 47276U 20100U   25309.28136531 -.00000237  00000+0 -69465-3 0  9993
2 47276  87.8973  35.1274 0001875 102.0962 258.0377 13.12441998235276
ONEWEB-0131             
1 47277U 20100V   25309.27812345 -.00000608  00000+0 -17255-2 0  9998
2 47277  87.8975  35.1580 0001798 103.1047 257.0282 13.12443449235311
ONEWEB-0132             
1 47278U 20100W   25309.23109843  .00000468  00000+0  12650-2 0  9993
2 47278  87.8974  35.1693 0001723 101.6179 258.5143 13.12442639235203
ONEWEB-0133             
1 47279U 20100X   25309.24717823  .00000254  00000+0  67194-3 0  9995
2 47279  87.8967  35.1301 0001877 106.1972 253.9364 13.12440963235362
ONEWEB-0134             
1 47280U 20100Y   25309.21650132  .00000206  00000+0  53627-3 0  9996
2 47280  87.8975  35.1288 0002051 101.6996 258.4362 13.12443412235335
ONEWEB-0135             
1 47281U 20100Z   25309.26352553 -.00000274  00000+0 -79831-3 0  9990
2 47281  87.8976  35.1600 0002155 106.2548 253.8818 13.12441176235367
